NOAA 2 (ITOS-D)         
1 06235U 72082A   26115.78023139 -.00000026  00000+0  12947-3 0  9997
2 06235 102.0113 133.7717 0003665 269.3670 264.0161 12.53213311448387
OSCAR 7 (AO-7)          
1 07530U 74089B   26115.87753196 -.00000031  00000+0  96314-4 0  9995
2 07530 101.9931 128.5744 0011961 229.7726 201.1613 12.53697167353962
TIROS N                 
1 11060U 78096A   26115.76116002  .00000132  00000+0  82262-4 0  9995
2 11060  98.4571 139.1809 0011113  40.3324 319.8675 14.19357798671319
PHASE 3B (AO-10)        
1 14129U 83058B   26115.43941507  .00000058  00000+0  00000+0 0  9990
2 14129  25.8952 228.3572 6029562 101.1190 328.2592  2.05871318294407
HILAT                   
1 14154U 83063A   26115.81126006  .00000300  00000+0  91869-4 0  9993
2 14154  82.0265 209.7109 0040699  89.9019  30.5022 14.38678488240052
UOSAT 2 (UO-11)         
1 14781U 84021B   26115.86533003  .00001408  00000+0  14934-3 0  9995
2 14781  97.8018  82.0428 0007771   9.0173 351.1183 14.90654729249332
NOAA 9                  
1 15427U 84123A   26115.83424248  .00000084  00000+0  64896-4 0  9995
2 15427  99.1033 141.2493 0015433 135.7118  36.9431 14.17053509136003
GEOSAT                  
1 15595U 85021A   26115.49080917  .00000064  00000+0  63540-4 0  9995
2 15595 108.0499 331.7781 0001734 254.1167 105.9784 14.39941780155189
EUTELSAT 1-F4 (ECS 4)   
1 18351U 87078B   26115.68793316 -.00000002  00000+0  00000+0 0  9997
2 18351  13.8663 342.4929 0011880  36.0872 333.2920  0.98687275126243
PACSAT (AO-16)          
1 20439U 90005D   26115.71134550  .00000103  00000+0  53746-4 0  9995
2 20439  98.8569 150.1483 0011078  31.3217  86.2502 14.33919269894417
LUSAT (LO-19)           
1 20442U 90005G   26115.78541409  .00000110  00000+0  56077-4 0  9999
2 20442  98.8886 136.1385 0011612   5.6944 354.4370 14.34106019894889
IRS-1B                  
1 21688U 91061A   26115.86971759  .00000034  00000+0  56878-4 0  9993
2 21688  99.4123 122.5100 0025050 143.8100 283.4581 13.97863302661180
COSMOS 2197             
1 22034U 92042A   26115.86025426  .00000037  00000+0  14395-3 0  9990
2 22034  82.5917 262.3694 0013055  37.8794 117.3641 12.64250926558670
PEGASUS R/B             
1 22491U 93009C   26115.14246942  .00000756  00000+0  11638-3 0  9995
2 22491  24.9784  63.8019 0043785 254.6544 104.9125 14.57895313761886
EYESAT A (AO-27)        
1 22825U 93061C   26115.76645024  .00000069  00000+0  43302-4 0  9997
2 22825  98.6906 183.1918 0007304 251.4174 108.6215 14.30927492699501
ITAMSAT (IO-26)         
1 22826U 93061D   26115.76145740  .00000075  00000+0  45331-4 0  9999
2 22826  98.6853 183.0989 0007975 232.8581 127.1874 14.31352931699811
RADIO ROSTO (RS15)      
1 23439U 94085A   26115.78942384 -.00000047  00000+0 -11777-3 0  9995
2 23439  64.8201  27.9572 0154446  13.4060 347.0898 11.27583717289992
