[{"OBJECT_NAME":"NOAA 2 (ITOS-D)","OBJECT_ID":"1972-082A","EPOCH":"2026-04-25T18:43:31.992096","MEAN_MOTION":12.53213311,"ECCENTRICITY":0.0003665,"INCLINATION":102.0113,"RA_OF_ASC_NODE":133.7717,"ARG_OF_PERICENTER":269.367,"MEAN_ANOMALY":264.0161,"EPHEMERIS_TYPE":0,"CLASSIFICATION_TYPE":"U","NORAD_CAT_ID":6235,"ELEMENT_SET_NO":999,"REV_AT_EPOCH":44838,"BSTAR":0.00012947,"MEAN_MOTION_DOT":-2.6e-7,"MEAN_MOTION_DDOT":0},{"OBJECT_NAME":"OSCAR 7 (AO-7)","OBJECT_ID":"1974-089B","EPOCH":"2026-04-25T21:03:38.761344","MEAN_MOTION":12.53697167,"ECCENTRICITY":0.0011961,"INCLINATION":101.9931,"RA_OF_ASC_NODE":128.5744,"ARG_OF_PERICENTER":229.7726,"MEAN_ANOMALY":201.1613,"EPHEMERIS_TYPE":0,"CLASSIFICATION_TYPE":"U","NORAD_CAT_ID":7530,"ELEMENT_SET_NO":999,"REV_AT_EPOCH":35396,"BSTAR":9.6314e-5,"MEAN_MOTION_DOT":-3.1e-7,"MEAN_MOTION_DDOT":0},{"OBJECT_NAME":"TIROS N","OBJECT_ID":"1978-096A","EPOCH":"2026-04-25T18:16:04.225728","MEAN_MOTION":14.19357798,"ECCENTRICITY":0.0011113,"INCLINATION":98.4571,"RA_OF_ASC_NODE":139.1809,"ARG_OF_PERICENTER":40.3324,"MEAN_ANOMALY":319.8675,"EPHEMERIS_TYPE":0,"CLASSIFICATION_TYPE":"U","NORAD_CAT_ID":11060,"ELEMENT_SET_NO":999,"REV_AT_EPOCH":67131,"BSTAR":8.2262e-5,"MEAN_MOTION_DOT":1.32e-6,"MEAN_MOTION_DDOT":0},{"OBJECT_NAME":"PHASE 3B (AO-10)","OBJECT_ID":"1983-058B","EPOCH":"2026-04-25T10:32:45.462048","MEAN_MOTION":2.05871318,"ECCENTRICITY":0.6029562,"INCLINATION":25.8952,"RA_OF_ASC_NODE":228.3572,"ARG_OF_PERICENTER":101.119,"MEAN_ANOMALY":328.2592,"EPHEMERIS_TYPE":0,"CLASSIFICATION_TYPE":"U","NORAD_CAT_ID":14129,"ELEMENT_SET_NO":999,"REV_AT_EPOCH":29440,"BSTAR":0,"MEAN_MOTION_DOT":5.8e-7,"MEAN_MOTION_DDOT":0},{"OBJECT_NAME":"HILAT","OBJECT_ID":"1983-063A","EPOCH":"2026-04-25T19:28:12.869184","MEAN_MOTION":14.38678488,"ECCENTRICITY":0.0040699,"INCLINATION":82.0265,"RA_OF_ASC_NODE":209.7109,"ARG_OF_PERICENTER":89.9019,"MEAN_ANOMALY":30.5022,"EPHEMERIS_TYPE":0,"CLASSIFICATION_TYPE":"U","NORAD_CAT_ID":14154,"ELEMENT_SET_NO":999,"REV_AT_EPOCH":24005,"BSTAR":9.1869e-5,"MEAN_MOTION_DOT":3.0e-6,"MEAN_MOTION_DDOT":0},{"OBJECT_NAME":"UOSAT 2 (UO-11)","OBJECT_ID":"1984-021B","EPOCH":"2026-04-25T20:46:04.514592","MEAN_MOTION":14.90654729,"ECCENTRICITY":0.0007771,"INCLINATION":97.8018,"RA_OF_ASC_NODE":82.0428,"ARG_OF_PERICENTER":9.0173,"MEAN_ANOMALY":351.1183,"EPHEMERIS_TYPE":0,"CLASSIFICATION_TYPE":"U","NORAD_CAT_ID":14781,"ELEMENT_SET_NO":999,"REV_AT_EPOCH":24933,"BSTAR":0.00014934,"MEAN_MOTION_DOT":1.408e-5,"MEAN_MOTION_DDOT":0},{"OBJECT_NAME":"NOAA 9","OBJECT_ID":"1984-123A","EPOCH":"2026-04-25T20:01:18.550272","MEAN_MOTION":14.17053509,"ECCENTRICITY":0.0015433,"INCLINATION":99.1033,"RA_OF_ASC_NODE":141.2493,"ARG_OF_PERICENTER":135.7118,"MEAN_ANOMALY":36.9431,"EPHEMERIS_TYPE":0,"CLASSIFICATION_TYPE":"U","NORAD_CAT_ID":15427,"ELEMENT_SET_NO":999,"REV_AT_EPOCH":13600,"BSTAR":6.4896e-5,"MEAN_MOTION_DOT":8.4e-7,"MEAN_MOTION_DDOT":0},{"OBJECT_NAME":"GEOSAT","OBJECT_ID":"1985-021A","EPOCH":"2026-04-25T11:46:45.912288","MEAN_MOTION":14.3994178,"ECCENTRICITY":0.0001734,"INCLINATION":108.0499,"RA_OF_ASC_NODE":331.7781,"ARG_OF_PERICENTER":254.1167,"MEAN_ANOMALY":105.9784,"EPHEMERIS_TYPE":0,"CLASSIFICATION_TYPE":"U","NORAD_CAT_ID":15595,"ELEMENT_SET_NO":999,"REV_AT_EPOCH":15518,"BSTAR":6.354e-5,"MEAN_MOTION_DOT":6.4e-7,"MEAN_MOTION_DDOT":0},{"OBJECT_NAME":"EUTELSAT 1-F4 (ECS 4)","OBJECT_ID":"1987-078B","EPOCH":"2026-04-25T16:30:37.425024","MEAN_MOTION":0.98687275,"ECCENTRICITY":0.001188,"INCLINATION":13.8663,"RA_OF_ASC_NODE":342.4929,"ARG_OF_PERICENTER":36.0872,"MEAN_ANOMALY":333.292,"EPHEMERIS_TYPE":0,"CLASSIFICATION_TYPE":"U","NORAD_CAT_ID":18351,"ELEMENT_SET_NO":999,"REV_AT_EPOCH":12624,"BSTAR":0,"MEAN_MOTION_DOT":-2.0e-8,"MEAN_MOTION_DDOT":0},{"OBJECT_NAME":"PACSAT (AO-16)","OBJECT_ID":"1990-005D","EPOCH":"2026-04-25T17:04:20.251200","MEAN_MOTION":14.33919269,"ECCENTRICITY":0.0011078,"INCLINATION":98.8569,"RA_OF_ASC_NODE":150.1483,"ARG_OF_PERICENTER":31.3217,"MEAN_ANOMALY":86.2502,"EPHEMERIS_TYPE":0,"CLASSIFICATION_TYPE":"U","NORAD_CAT_ID":20439,"ELEMENT_SET_NO":999,"REV_AT_EPOCH":89441,"BSTAR":5.3746e-5,"MEAN_MOTION_DOT":1.03e-6,"MEAN_MOTION_DDOT":0},{"OBJECT_NAME":"LUSAT (LO-19)","OBJECT_ID":"1990-005G","EPOCH":"2026-04-25T18:50:59.777376","MEAN_MOTION":14.34106019,"ECCENTRICITY":0.0011612,"INCLINATION":98.8886,"RA_OF_ASC_NODE":136.1385,"ARG_OF_PERICENTER":5.6944,"MEAN_ANOMALY":354.437,"EPHEMERIS_TYPE":0,"CLASSIFICATION_TYPE":"U","NORAD_CAT_ID":20442,"ELEMENT_SET_NO":999,"REV_AT_EPOCH":89488,"BSTAR":5.6077e-5,"MEAN_MOTION_DOT":1.1e-6,"MEAN_MOTION_DDOT":0},{"OBJECT_NAME":"IRS-1B","OBJECT_ID":"1991-061A","EPOCH":"2026-04-25T20:52:23.599776","MEAN_MOTION":13.97863302,"ECCENTRICITY":0.002505,"INCLINATION":99.4123,"RA_OF_ASC_NODE":122.51,"ARG_OF_PERICENTER":143.81,"MEAN_ANOMALY":283.4581,"EPHEMERIS_TYPE":0,"CLASSIFICATION_TYPE":"U","NORAD_CAT_ID":21688,"ELEMENT_SET_NO":999,"REV_AT_EPOCH":66118,"BSTAR":5.6878e-5,"MEAN_MOTION_DOT":3.4e-7,"MEAN_MOTION_DDOT":0},{"OBJECT_NAME":"COSMOS 2197","OBJECT_ID":"1992-042A","EPOCH":"2026-04-25T20:38:45.968064","MEAN_MOTION":12.64250926,"ECCENTRICITY":0.0013055,"INCLINATION":82.5917,"RA_OF_ASC_NODE":262.3694,"ARG_OF_PERICENTER":37.8794,"MEAN_ANOMALY":117.3641,"EPHEMERIS_TYPE":0,"CLASSIFICATION_TYPE":"U","NORAD_CAT_ID":22034,"ELEMENT_SET_NO":999,"REV_AT_EPOCH":55867,"BSTAR":0.00014395,"MEAN_MOTION_DOT":3.7e-7,"MEAN_MOTION_DDOT":0},{"OBJECT_NAME":"PEGASUS R/B","OBJECT_ID":"1993-009C","EPOCH":"2026-04-25T03:25:09.357888","MEAN_MOTION":14.57895313,"ECCENTRICITY":0.0043785,"INCLINATION":24.9784,"RA_OF_ASC_NODE":63.8019,"ARG_OF_PERICENTER":254.6544,"MEAN_ANOMALY":104.9125,"EPHEMERIS_TYPE":0,"CLASSIFICATION_TYPE":"U","NORAD_CAT_ID":22491,"ELEMENT_SET_NO":999,"REV_AT_EPOCH":76188,"BSTAR":0.00011637737,"MEAN_MOTION_DOT":7.56e-6,"MEAN_MOTION_DDOT":0},{"OBJECT_NAME":"EYESAT A (AO-27)","OBJECT_ID":"1993-061C","EPOCH":"2026-04-25T18:23:41.300736","MEAN_MOTION":14.30927492,"ECCENTRICITY":0.0007304,"INCLINATION":98.6906,"RA_OF_ASC_NODE":183.1918,"ARG_OF_PERICENTER":251.4174,"MEAN_ANOMALY":108.6215,"EPHEMERIS_TYPE":0,"CLASSIFICATION_TYPE":"U","NORAD_CAT_ID":22825,"ELEMENT_SET_NO":999,"REV_AT_EPOCH":69950,"BSTAR":4.3302e-5,"MEAN_MOTION_DOT":6.9e-7,"MEAN_MOTION_DDOT":0},{"OBJECT_NAME":"ITAMSAT (IO-26)","OBJECT_ID":"1993-061D","EPOCH":"2026-04-25T18:16:29.919360","MEAN_MOTION":14.31352931,"ECCENTRICITY":0.0007975,"INCLINATION":98.6853,"RA_OF_ASC_NODE":183.0989,"ARG_OF_PERICENTER":232.8581,"MEAN_ANOMALY":127.1874,"EPHEMERIS_TYPE":0,"CLASSIFICATION_TYPE":"U","NORAD_CAT_ID":22826,"ELEMENT_SET_NO":999,"REV_AT_EPOCH":69981,"BSTAR":4.5331e-5,"MEAN_MOTION_DOT":7.5e-7,"MEAN_MOTION_DDOT":0},{"OBJECT_NAME":"RADIO ROSTO (RS15)","OBJECT_ID":"1994-085A","EPOCH":"2026-04-25T18:56:46.219776","MEAN_MOTION":11.27583717,"ECCENTRICITY":0.0154446,"INCLINATION":64.8201,"RA_OF_ASC_NODE":27.9572,"ARG_OF_PERICENTER":13.406,"MEAN_ANOMALY":347.0898,"EPHEMERIS_TYPE":0,"CLASSIFICATION_TYPE":"U","NORAD_CAT_ID":23439,"ELEMENT_SET_NO":999,"REV_AT_EPOCH":28999,"BSTAR":-0.00011777,"MEAN_MOTION_DOT":-4.7e-7,"MEAN_MOTION_DDOT":0}]
